NORAD_CAT_ID,OBJECT_NAME,OBJECT_TYPE,EPOCH,MEAN_MOTION,ECCENTRICITY,INCLINATION,RA_OF_ASC_NODE,ARG_OF_PERICENTER,MEAN_ANOMALY,BSTAR,MEAN_MOTION_DOT,MEAN_MOTION_DDOT,TLE_LINE0,TLE_LINE1,TLE_LINE2,SEMIMAJOR_AXIS,PERIOD,APOGEE,PERIGEE,DECAYED
53531.0,STARLINK-4487,PAYLOAD,2024-02-02 00:57:08,15.088273,0.0001487,53.2149,275.7467,100.5585,259.5575,0.00049464,7.59e-05,0.0,0 STARLINK-4487,1 53531U 22101E   24033.03968628  .00007590  00000-0  49464-3 0  9998,2 53531  53.2149 275.7467 0001487 100.5585 259.5575 15.08827300 80421,6917.919,95.438,540.813,538.756,0.0
53531.0,STARLINK-4487,PAYLOAD,2024-02-02 21:37:09,15.08838561,0.0001307,53.2158,271.8817,83.7193,276.3948,8.6294e-05,1.086e-05,0.0,0 STARLINK-4487,1 53531U 22101E   24033.90080179  .00001086  00000-0  86294-4 0  9997,2 53531  53.2158 271.8817 0001307  83.7193 276.3948 15.08838561 80551,6917.885,95.438,540.654,538.846,0.0
53531.0,STARLINK-4487,PAYLOAD,2024-02-03 00:47:55,15.08840382,0.0001357,53.2163,271.2858,80.627,279.4876,0.00010563,1.394e-05,0.0,0 STARLINK-4487,1 53531U 22101E   24034.03328114  .00001394  00000-0  10563-3 0  9993,2 53531  53.2163 271.2858 0001357  80.6270 279.4876 15.08840382 80573,6917.879,95.438,540.683,538.805,0.0
53531.0,STARLINK-4487,PAYLOAD,2024-02-03 19:52:33,15.08834954,0.0001531,53.2171,267.716,78.9438,281.1727,2.8951e-05,1.73e-06,0.0,0 STARLINK-4487,1 53531U 22101E   24034.82816691  .00000173  00000-0  28951-4 0  9997,2 53531  53.2171 267.7160 0001531  78.9438 281.1727 15.08834954 80694,6917.896,95.438,540.82,538.702,0.0
53531.0,STARLINK-4487,PAYLOAD,2024-02-03 21:27:56,15.08836257,0.0001532,53.2175,267.4184,78.7765,281.3399,6.6104e-05,7.64e-06,0.0,0 STARLINK-4487,1 53531U 22101E   24034.89440906  .00000764  00000-0  66104-4 0  9994,2 53531  53.2175 267.4184 0001532  78.7765 281.3399 15.08836257 80700,6917.892,95.438,540.817,538.697,0.0
53531.0,STARLINK-4487,PAYLOAD,2024-02-04 00:38:43,15.08839118,0.0001629,53.2179,266.8213,74.0342,286.083,7.943e-05,9.76e-06,0.0,0 STARLINK-4487,1 53531U 22101E   24035.02688714  .00000976  00000-0  79430-4 0  9992,2 53531  53.2179 266.8213 0001629  74.0342 286.0830 15.08839118 80720,6917.883,95.438,540.875,538.621,0.0
53531.0,STARLINK-4487,PAYLOAD,2024-02-04 19:43:19,15.08851917,0.0001533,53.2174,263.2556,77.9451,282.1713,0.0001786,2.556e-05,0.0,0 STARLINK-4487,1 53531U 22101E   24035.82175590  .00002556  00000-0  17860-3 0  9997,2 53531  53.2174 263.2556 0001533  77.9451 282.1713 15.08851917 80844,6917.844,95.437,540.769,538.648,0.0
53531.0,STARLINK-4487,PAYLOAD,2024-02-04 21:18:41,15.08867776,0.0001811,53.2179,262.9536,66.7653,293.3529,0.00031836,4.786e-05,0.0,0 STARLINK-4487,1 53531U 22101E   24035.88798328  .00004786  00000-0  31836-3 0  9999,2 53531  53.2179 262.9536 0001811  66.7653 293.3529 15.08867776 80852,6917.795,95.436,540.913,538.408,0.0
53531.0,STARLINK-4487,PAYLOAD,2024-02-05 08:26:24,15.08846343,0.0001906,53.2166,260.8798,100.0269,260.0939,0.00014702,2.053e-05,0.0,0 STARLINK-4487,1 53531U 22101E   24036.35167677  .00002053  00000-0  14702-3 0  9997,2 53531  53.2166 260.8798 0001906 100.0269 260.0939 15.08846343 80926,6917.861,95.437,541.045,538.407,0.0
53531.0,STARLINK-4487,PAYLOAD,2024-02-05 21:09:30,15.08836663,0.000142,53.2152,258.5016,99.6415,260.4737,-6.2573e-05,-1.284e-05,0.0,0 STARLINK-4487,1 53531U 22101E   24036.88160143 -.00001284  00000-0 -62573-4 0  9993,2 53531  53.2152 258.5016 0001420  99.6415 260.4737 15.08836663 81009,6917.891,95.438,540.738,538.773,0.0
53531.0,STARLINK-4487,PAYLOAD,2024-02-06 00:20:16,15.0884076,0.0001771,53.2158,257.9059,130.892,229.2226,4.8905e-06,-2.1e-06,0.0,0 STARLINK-4487,1 53531U 22101E   24037.01407895 -.00000210  00000-0  48905-5 0  9998,2 53531  53.2158 257.9059 0001771 130.8920 229.2226 15.08840760 81024,6917.878,95.438,540.968,538.518,0.0
53531.0,STARLINK-4487,PAYLOAD,2024-02-06 21:00:16,15.08851079,0.000162,53.2159,254.039,107.0295,253.0875,-0.00011051,-2.047e-05,0.0,0 STARLINK-4487,1 53531U 22101E   24037.87519410 -.00002047  00000-0 -11051-3 0  9990,2 53531  53.2159 254.0390 0001620 107.0295 253.0875 15.08851079 81159,6917.847,95.437,540.832,538.591,0.0
53531.0,STARLINK-4487,PAYLOAD,2024-02-07 00:11:02,15.08851902,0.0001753,53.2164,253.4439,117.3526,242.7644,-4.398e-05,-9.88e-06,0.0,0 STARLINK-4487,1 53531U 22101E   24038.00767283 -.00000988  00000-0 -43980-4 0  9998,2 53531  53.2164 253.4439 0001753 117.3526 242.7644 15.08851902 81176,6917.844,95.437,540.922,538.496,0.0
53531.0,STARLINK-4487,PAYLOAD,2024-02-07 14:29:32,15.08830877,0.0001768,53.2162,250.7668,114.9919,245.1257,0.00011645,1.565e-05,0.0,0 STARLINK-4487,1 53531U 22101E   24038.60384630  .00001565  00000-0  11645-3 0  9997,2 53531  53.2162 250.7668 0001768 114.9919 245.1257 15.08830877 81268,6917.908,95.438,540.996,538.55,0.0
53531.0,STARLINK-4487,PAYLOAD,2024-02-07 20:51:05,15.08831745,0.0001485,53.2152,249.5783,95.939,264.1772,0.0001198,1.619e-05,0.0,0 STARLINK-4487,1 53531U 22101E   24038.86880807  .00001619  00000-0  11980-3 0  9994,2 53531  53.2152 249.5783 0001485  95.9390 264.1772 15.08831745 81301,6917.906,95.438,540.798,538.743,0.0
53531.0,STARLINK-4487,PAYLOAD,2024-02-08 06:23:23,15.08834417,0.0001514,53.2155,247.7963,93.2572,266.8593,7.7713e-05,9.49e-06,0.0,0 STARLINK-4487,1 53531U 22101E   24039.26624862  .00000949  00000-0  77713-4 0  9998,2 53531  53.2155 247.7963 0001514  93.2572 266.8593 15.08834417 81365,6917.897,95.438,540.81,538.715,0.0
53531.0,STARLINK-4487,PAYLOAD,2024-02-08 20:41:51,15.08840614,0.0001427,53.2162,245.1192,93.1526,266.963,0.00011899,1.606e-05,0.0,0 STARLINK-4487,1 53531U 22101E   24039.86240583  .00001606  00000-0  11899-3 0  9991,2 53531  53.2162 245.1192 0001427  93.1526 266.9630 15.08840614 81459,6917.879,95.438,540.731,538.756,0.0
53531.0,STARLINK-4487,PAYLOAD,2024-02-09 12:35:43,15.08839024,0.0001379,53.216,242.1455,92.8018,267.3132,0.00017762,2.54e-05,0.0,0 STARLINK-4487,1 53531U 22101E   24040.52480724  .00002540  00000-0  17762-3 0  9992,2 53531  53.2160 242.1455 0001379  92.8018 267.3132 15.08839024 81550,6917.883,95.438,540.702,538.794,0.0
53531.0,STARLINK-4487,PAYLOAD,2024-02-09 20:32:38,15.08843712,0.0001387,53.215,240.659,91.866,268.2491,0.00017714,2.533e-05,0.0,0 STARLINK-4487,1 53531U 22101E   24040.85600506  .00002533  00000-0  17714-3 0  9999,2 53531  53.2150 240.6590 0001387  91.8660 268.2491 15.08843712 81606,6917.869,95.437,540.694,538.775,0.0
53531.0,STARLINK-4487,PAYLOAD,2024-02-10 20:23:26,15.08837213,0.0001365,53.2163,236.2006,102.6554,257.4591,1.3588e-05,-7.2e-07,0.0,0 STARLINK-4487,1 53531U 22101E   24041.84961443 -.00000072  00000-0  13588-4 0  9992,2 53531  53.2163 236.2006 0001365 102.6554 257.4591 15.08837213 81758,6917.889,95.438,540.698,538.81,0.0
53531.0,STARLINK-4487,PAYLOAD,2024-02-10 21:58:49,15.08836265,0.0001348,53.2162,235.9032,100.3185,259.7959,-4.5477e-08,-2.89e-06,0.0,0 STARLINK-4487,1 53531U 22101E   24041.91585527 -.00000289  00000-0 -45477-7 0  9991,2 53531  53.2162 235.9032 0001348 100.3185 259.7959 15.08836265 81768,6917.892,95.438,540.689,538.824,0.0
53531.0,STARLINK-4487,PAYLOAD,2024-02-11 12:17:17,15.08840435,0.0001495,53.2162,233.2214,110.014,250.1013,2.5014e-06,-2.48e-06,0.0,0 STARLINK-4487,1 53531U 22101E   24042.51201328 -.00000248  00000-0  25014-5 0  9999,2 53531  53.2162 233.2214 0001495 110.0140 250.1013 15.08840435 81853,6917.879,95.438,540.778,538.71,0.0
53531.0,STARLINK-4487,PAYLOAD,2024-02-11 20:14:13,15.08846496,0.0001316,53.2162,231.7395,87.7579,272.3564,0.0001002,1.307e-05,0.0,0 STARLINK-4487,1 53531U 22101E   24042.84320640  .00001307  00000-0  10020-3 0  9999,2 53531  53.2162 231.7395 0001316  87.7579 272.3564 15.08846496 81900,6917.861,95.437,540.636,538.815,0.0
53531.0,STARLINK-4487,PAYLOAD,2024-02-12 12:08:03,15.08856648,0.0001149,53.2157,228.7633,91.2072,268.9052,0.00026691,3.964e-05,0.0,0 STARLINK-4487,1 53531U 22101E   24043.50559270  .00003964  00000-0  26691-3 0  9998,2 53531  53.2157 228.7633 0001149  91.2072 268.9052 15.08856648 82002,6917.83,95.437,540.489,538.9,0.0
53531.0,STARLINK-4487,PAYLOAD,2024-02-12 16:54:11,15.08865069,0.0001176,53.2158,227.8729,89.3371,270.7755,0.00033879,5.112e-05,0.0,0 STARLINK-4487,1 53531U 22101E   24043.70430546  .00005112  00000-0  33879-3 0  9997,2 53531  53.2158 227.8729 0001176  89.3371 270.7755 15.08865069 82030,6917.804,95.436,540.482,538.855,0.0
53531.0,STARLINK-4487,PAYLOAD,2024-02-13 16:44:59,15.08848567,0.000145,53.215,223.4105,130.9986,229.1132,-1.2137e-05,-4.81e-06,0.0,0 STARLINK-4487,1 53531U 22101E   24044.69791413 -.00000481  00000-0 -12137-4 0  9990,2 53531  53.2150 223.4105 0001450 130.9986 229.1132 15.08848567 82189,6917.854,95.437,540.722,538.716,0.0
53531.0,STARLINK-4487,PAYLOAD,2024-02-13 21:31:09,15.08839636,0.0001009,53.2149,222.5178,94.4098,265.701,-0.00013883,-2.497e-05,0.0,0 STARLINK-4487,1 53531U 22101E   24044.89663943 -.00002497  00000-0 -13883-3 0  9995,2 53531  53.2149 222.5178 0001009  94.4098 265.7010 15.08839636 82217,6917.882,95.438,540.445,539.048,0.0
53531.0,STARLINK-4487,PAYLOAD,2024-02-14 15:00:26,15.08778643,0.0001845,53.2149,219.2473,98.077,262.0431,0.00056385,8.682e-05,0.0,0 STARLINK-4487,1 53531U 22101E   24045.62530523  .00008682  00000-0  56385-3 0  9998,2 53531  53.2149 219.2473 0001845  98.0770 262.0431 15.08778643 82322,6918.068,95.441,541.209,538.657,0.0
53531.0,STARLINK-4487,PAYLOAD,2024-02-14 18:11:11,15.08838912,0.0001141,53.2161,218.6538,92.9923,267.1199,-0.00021705,-3.74e-05,0.0,0 STARLINK-4487,1 53531U 22101E   24045.75776929 -.00003740  00000-0 -21705-3 0  9994,2 53531  53.2161 218.6538 0001141  92.9923 267.1199 15.08838912 82348,6917.884,95.438,540.538,538.959,0.0
53531.0,STARLINK-4487,PAYLOAD,2024-02-14 21:21:57,15.08839737,0.0001208,53.2159,218.058,96.5081,263.6049,-0.0002002,-3.473e-05,0.0,0 STARLINK-4487,1 53531U 22101E   24045.89024829 -.00003473  00000-0 -20020-3 0  9996,2 53531  53.2159 218.0580 0001208  96.5081 263.6049 15.08839737 82368,6917.881,95.438,540.582,538.911,0.0
